{
    "links": {
        "self": "http://www.neowsapp.com/rest/v1/neo/3785759?api_key=iIulBulltgU6a56xZRHN4H3l9WmuAYTsLGpBGhQ2"
    },
    "id": "3785759",
    "neo_reference_id": "3785759",
    "name": "(2017 TY3)",
    "designation": "2017 TY3",
    "nasa_jpl_url": "http://ssd.jpl.nasa.gov/sbdb.cgi?sstr=3785759",
    "absolute_magnitude_h": 25.4,
    "estimated_diameter": {
        "kilometers": {
            "estimated_diameter_min": 0.022108281,
            "estimated_diameter_max": 0.0494356193
        },
        "meters": {
            "estimated_diameter_min": 22.1082810359,
            "estimated_diameter_max": 49.435619262
        },
        "miles": {
            "estimated_diameter_min": 0.0137374447,
            "estimated_diameter_max": 0.0307178602
        },
        "feet": {
            "estimated_diameter_min": 72.5337327539,
            "estimated_diameter_max": 162.1903570994
        }
    },
    "is_potentially_hazardous_asteroid": false,
    "close_approach_data": [
        {
            "close_approach_date": "1963-05-31",
            "close_approach_date_full": "1963-May-31 23:25",
            "epoch_date_close_approach": -207880500000,
            "relative_velocity": {
                "kilometers_per_second": "12.4988860946",
                "kilometers_per_hour": "44995.9899406781",
                "miles_per_hour": "27958.7583050841"
            },
            "miss_distance": {
                "astronomical": "0.1608729228",
                "lunar": "62.5795669692",
                "kilometers": "24066246.591554436",
                "miles": "14954072.2024497768"
            },
            "orbiting_body": "Earth"
        },
        {
            "close_approach_date": "2017-10-03",
            "close_approach_date_full": "2017-Oct-03 07:16",
            "epoch_date_close_approach": 1507014960000,
            "relative_velocity": {
                "kilometers_per_second": "16.6909561365",
                "kilometers_per_hour": "60087.4420913258",
                "miles_per_hour": "37335.9997816908"
            },
            "miss_distance": {
                "astronomical": "0.0109680638",
                "lunar": "4.2665768182",
                "kilometers": "1640798.982504106",
                "miles": "1019545.2107884228"
            },
            "orbiting_body": "Earth"
        },
        {
            "close_approach_date": "2051-12-03",
            "close_approach_date_full": "2051-Dec-03 06:06",
            "epoch_date_close_approach": 2585196360000,
            "relative_velocity": {
                "kilometers_per_second": "11.4403705506",
                "kilometers_per_hour": "41185.3339820682",
                "miles_per_hour": "25590.9648845801"
            },
            "miss_distance": {
                "astronomical": "0.0787942741",
                "lunar": "30.6509726249",
                "kilometers": "11787455.573556167",
                "miles": "7324385.2571504246"
            },
            "orbiting_body": "Venus"
        },
        {
            "close_approach_date": "2185-10-01",
            "close_approach_date_full": "2185-Oct-01 04:38",
            "epoch_date_close_approach": 6808423080000,
            "relative_velocity": {
                "kilometers_per_second": "14.9218699558",
                "kilometers_per_hour": "53718.7318410546",
                "miles_per_hour": "33378.7309042375"
            },
            "miss_distance": {
                "astronomical": "0.0516273331",
                "lunar": "20.0830325759",
                "kilometers": "7723339.065540497",
                "miles": "4799060.3599409786"
            },
            "orbiting_body": "Earth"
        }
    ],
    "orbital_data": {
        "orbit_id": "5",
        "orbit_determination_date": "2017-10-23 06:22:06",
        "first_observation_date": "2017-10-11",
        "last_observation_date": "2017-10-20",
        "data_arc_in_days": 9,
        "observations_used": 31,
        "orbit_uncertainty": "9",
        "minimum_orbit_intersection": ".00948528",
        "jupiter_tisserand_invariant": "3.556",
        "epoch_osculation": "2458039.5",
        "eccentricity": ".6246362968378328",
        "semi_major_axis": "2.012482418606441",
        "inclination": "2.120851908572229",
        "ascending_node_longitude": "24.4081765309761",
        "orbital_period": "1042.789307439778",
        "perihelion_distance": ".7554128531968686",
        "perihelion_argument": "276.3763480653906",
        "aphelion_distance": "3.269551984016014",
        "perihelion_time": "2457985.714241451947",
        "mean_anomaly": "18.56834639476518",
        "mean_motion": ".3452279357216081",
        "equinox": "J2000",
        "orbit_class": {
            "orbit_class_type": "APO",
            "orbit_class_description": "Near-Earth asteroid orbits which cross the Earth’s orbit similar to that of 1862 Apollo",
            "orbit_class_range": "a (semi-major axis) > 1.0 AU; q (perihelion) < 1.017 AU"
        }
    },
    "is_sentry_object": false
}